IRIDIUM 921             
1 24873U 97034E   24157.81166789  .00037046  00000+0  96521-3 0  9997
2 24873  86.3796 293.7442 0002460 288.1105  71.9880 15.38705848473436
IRIDIUM 26              
1 24903U 97043A   24158.04346685  .00000697  00000+0  23158-3 0  9990
2 24903  86.3953 268.4294 0001985  95.5529 264.5894 14.36387026403204
IRIDIUM 22              
1 24907U 97043E   24157.60248849  .00000702  00000+0  23847-3 0  9990
2 24907  86.3953 271.8435 0002196  93.6291 266.5157 14.35275327402733
DUMMY MASS 1            
1 24925U 97048A   24158.15121191  .00000784  00000+0  86045-4 0  9996
2 24925  86.3325 309.0903 0008504  51.9378 308.2612 14.86229354449503
DUMMY MASS 2            
1 24926U 97048B   24157.84934794  .00000760  00000+0  83811-4 0  9995
2 24926  86.3326 310.7714 0009576  60.5440 299.6739 14.85986912449007
IRIDIUM 29              
1 24944U 97051A   24157.81806272  .00000721  00000+0  24288-3 0  9994
2 24944  86.3935 301.6722 0002323  87.9678 272.1784 14.35722985399250
IRIDIUM 33              
1 24946U 97051C   24158.46197055  .00000584  00000+0  20070-3 0  9992
2 24946  86.3851 300.6539 0006635 211.1906 148.8897 14.34378058398888
IRIDIUM 28              
1 24948U 97051E   24158.45635051  .00000766  00000+0  25361-3 0  9996
2 24948  86.3941 299.1335 0001804  99.8743 260.2658 14.36676994399954
